[{"OBJECT_NAME":"STARLINK-3077","OBJECT_ID":"2021-082D","EPOCH":"2026-03-09T22:08:31.582464","MEAN_MOTION":14.98325421,"ECCENTRICITY":0.00029723,"INCLINATION":69.9984,"RA_OF_ASC_NODE":293.8681,"ARG_OF_PERICENTER":272.5846,"MEAN_ANOMALY":87.4973,"EPHEMERIS_TYPE":0,"CLASSIFICATION_TYPE":"U","NORAD_CAT_ID":49133,"ELEMENT_SET_NO":999,"REV_AT_EPOCH":24601,"BSTAR":8.9812135e-5,"MEAN_MOTION_DOT":9.79e-6,"MEAN_MOTION_DDOT":0},{"OBJECT_NAME":"CZ-2D DEB","OBJECT_ID":"2017-060E","EPOCH":"2026-03-09T23:34:37.430688","MEAN_MOTION":14.93647319,"ECCENTRICITY":0.00123991,"INCLINATION":97.5938,"RA_OF_ASC_NODE":76.1834,"ARG_OF_PERICENTER":70.348,"MEAN_ANOMALY":289.9078,"EPHEMERIS_TYPE":0,"CLASSIFICATION_TYPE":"U","NORAD_CAT_ID":44612,"ELEMENT_SET_NO":999,"REV_AT_EPOCH":45207,"BSTAR":0.00055303734,"MEAN_MOTION_DOT":5.798e-5,"MEAN_MOTION_DDOT":0}]
